[{"OBJECT_NAME":"STARLINK-6266","OBJECT_ID":"2023-065AR","EPOCH":"2026-03-09T10:04:09.762816","MEAN_MOTION":15.02537405,"ECCENTRICITY":0.00013015,"INCLINATION":43.0026,"RA_OF_ASC_NODE":224.8651,"ARG_OF_PERICENTER":262.1452,"MEAN_ANOMALY":97.9242,"EPHEMERIS_TYPE":0,"CLASSIFICATION_TYPE":"U","NORAD_CAT_ID":56542,"ELEMENT_SET_NO":999,"REV_AT_EPOCH":15643,"BSTAR":-3.174188e-6,"MEAN_MOTION_DOT":-2.46e-6,"MEAN_MOTION_DDOT":0},{"OBJECT_NAME":"CZ-6A DEB","OBJECT_ID":"2022-151SL","EPOCH":"2026-03-09T10:13:37.626816","MEAN_MOTION":15.13067162,"ECCENTRICITY":0.00442991,"INCLINATION":99.1095,"RA_OF_ASC_NODE":231.9477,"ARG_OF_PERICENTER":182.6933,"MEAN_ANOMALY":177.4061,"EPHEMERIS_TYPE":0,"CLASSIFICATION_TYPE":"U","NORAD_CAT_ID":54947,"ELEMENT_SET_NO":999,"REV_AT_EPOCH":17723,"BSTAR":0.0054047259,"MEAN_MOTION_DOT":0.00099065,"MEAN_MOTION_DDOT":0}]
